PI_motion
version=1
nRows=1351
nColumns=3
inDegrees=yes
endheader
time	r_shoulder_elev	r_elbow_flex
0	0	20
0.01	0	19.99669491
0.02	0	19.98701182
0.03	0	19.97152685
0.04	0	19.95108976
0.05	0	19.92676811
0.06	0	19.89979287
0.07	0	19.87149875
0.08	0	19.84326074
0.09	0	19.81642973
0.1	0	19.79226976
0.11	0	19.77190016
0.12	0	19.75624484
0.13	0	19.74599149
0.14	0	19.7415623
0.15	0	19.74309746
0.16	0	19.75044432
0.17	0	19.76316441
0.18	0	19.78056912
0.19	0	19.8017645
0.2	0	19.82569947
0.21	0	19.85121805
0.22	0	19.87711492
0.23	0	19.90219249
0.24	0	19.92531672
0.25	0	19.9454692
0.26	0	19.96179313
0.27	0	19.97363087
0.28	0	19.98055148
0.29	0	19.98236674
0.3	0	19.97913652
0.31	0	19.97115076
0.32	0	19.95889237
0.33	0	19.9430328
0.34	0	19.92440049
0.35	0	19.90393952
0.36	0	19.88266375
0.37	0	19.8616087
0.38	0	19.8417829
0.39	0	19.82412126
0.4	0	19.80944225
0.41	0	19.79841122
0.42	0	19.79151122
0.43	0	19.78902289
0.44	0	19.79101367
0.45	0	19.79733
0.46	0	19.80760731
0.47	0	19.82129818
0.48	0	19.83770672
0.49	0	19.85602552
0.5	0	19.87537574
0.51	0	19.89484944
0.52	0	19.91355303
0.53	0	19.9306516
0.54	0	19.94541211
0.55	0	19.95724135
0.56	0	19.96571657
0.57	0	19.97060725
0.58	0	19.97188715
0.59	0	19.96973704
0.6	0	19.96453015
0.61	0	19.95680301
0.62	0	19.94724764
0.63	0	19.93668344
0.64	0	19.92602099
0.65	0	19.91622242
0.66	0	19.90825975
0.67	0	19.90307329
0.68	0	19.90153192
0.69	0	19.90439581
0.7	0	19.91227703
0.71	0	19.92561641
0.72	0	19.94467567
0.73	0	19.96953721
0.74	0	20.00010902
0.75	0	20.03613637
0.76	0	20.07722016
0.77	0	20.1228413
0.78	0	20.17238978
0.79	0	20.22519742
0.8	0	20.28057242
0.81	0	20.33783454
0.82	0	20.39634902
0.83	0	20.45555787
0.84	0	20.51500706
0.85	0	20.57436833
0.86	0	20.63345478
0.87	0	20.69222938
0.88	0	20.75080627
0.89	0	20.80944479
0.9	0	20.86853665
0.91	0	20.92858707
0.92	0	20.9901908
0.93	0	21.05400434
0.94	0	21.12071579
0.95	0	21.19101374
0.96	0	21.26555679
0.97	0	21.34494489
0.98	0	21.42969403
0.99	0	21.52021507
1	0	21.61679772
1.01	0	21.71960028
1.02	0	21.82864532
1.03	0	21.94382156
1.04	0	22.06489169
1.05	0	22.1915057
1.06	0	22.3232191
1.07	0	22.45951523
1.08	0	22.59983049
1.09	0	22.74358149
1.1	0	22.89019274
1.11	0	23.03912373
1.12	0	23.18989401
1.13	0	23.34210527
1.14	0	23.49545921
1.15	0	23.64977056
1.16	0	23.80497455
1.17	0	23.96112854
1.18	0	24.11840778
1.19	0	24.27709565
1.2	0	24.43756871
1.21	0	24.60027754
1.22	0	24.76572421
1.23	0	24.93443756
1.24	0	25.10694744
1.25	0	25.28375917
1.26	0	25.46532937
1.27	0	25.65204432
1.28	0	25.84420177
1.29	0	26.04199698
1.3	0	26.24551363
1.31	0	26.45471996
1.32	0	26.6694702
1.33	0	26.88951132
1.34	0	27.11449461
1.35	0	27.34399167
1.36	0	27.57751397
1.37	0	27.8145351
1.38	0	28.05451464
1.39	0	28.29692256
1.4	0	28.54126298
1.41	0	28.78709612
1.42	0	29.03405751
1.43	0	29.28187338
1.44	0	29.53037163
1.45	0	29.77948788
1.46	0	30.02926613
1.47	0	30.27985431
1.48	0	30.53149472
1.49	0	30.78451002
1.5	0	31.03928538
1.51	0	31.29624774
1.52	0	31.55584323
1.53	0	31.81851373
1.54	0	32.0846739
1.55	0	32.35468954
1.56	0	32.6288592
1.57	0	32.90742841
1.58	0	33.19059719
1.59	0	33.47846469
1.6	0	33.77101586
1.61	0	34.06812058
1.62	0	34.36953852
1.63	0	34.67492897
1.64	0	34.98386556
1.65	0	35.29585484
1.66	0	35.6103581
1.67	0	35.92681513
1.68	0	36.244669
1.69	0	36.56339058
1.7	0	36.88250156
1.71	0	37.201595
1.72	0	37.52035223
1.73	0	37.83855549
1.74	0	38.15609554
1.75	0	38.4729739
1.76	0	38.78929979
1.77	0	39.10528169
1.78	0	39.42121427
1.79	0	39.73746103
1.8	0	40.05443386
1.81	0	40.3725703
1.82	0	40.69230976
1.83	0	41.01406981
1.84	0	41.33822372
1.85	0	41.6650803
1.86	0	41.99486701
1.87	0	42.32771705
1.88	0	42.6636612
1.89	0	43.00262447
1.9	0	43.34442799
1.91	0	43.6887958
1.92	0	44.03536635
1.93	0	44.38373381
1.94	0	44.73355791
1.95	0	45.08452797
1.96	0	45.43636099
1.97	0	45.78877714
1.98	0	46.14149114
1.99	0	46.49422332
2	0	46.84671038
2.01	0	47.19871521
2.02	0	47.55003539
2.03	0	47.90050996
2.04	0	48.25002411
2.05	0	48.59851164
2.06	0	48.94595503
2.07	0	49.29238314
2.08	0	49.63786673
2.09	0	49.98251203
2.1	0	50.32645258
2.11	0	50.66983994
2.12	0	51.01283358
2.13	0	51.3555905
2.14	0	51.69825517
2.15	0	52.04095004
2.16	0	52.38376739
2.17	0	52.72676258
2.18	0	53.06994924
2.19	0	53.41329645
2.2	0	53.75672816
2.21	0	54.10012467
2.22	0	54.44332627
2.23	0	54.78613869
2.24	0	55.12834019
2.25	0	55.46968978
2.26	0	55.8099364
2.27	0	56.14882832
2.28	0	56.48612259
2.29	0	56.82159387
2.3	0	57.15504236
2.31	0	57.48630037
2.32	0	57.81523731
2.33	0	58.14176283
2.34	0	58.465828
2.35	0	58.78742452
2.36	0	59.106582
2.37	0	59.42336347
2.38	0	59.73785942
2.39	0	60.05018062
2.4	0	60.3604501
2.41	0	60.66879472
2.42	0	60.97533671
2.43	0	61.2801856
2.44	0	61.58343096
2.45	0	61.88513613
2.46	0	62.18533346
2.47	0	62.48402103
2.48	0	62.78116113
2.49	0	63.07668047
2.5	0	63.37047206
2.51	0	63.66239874
2.52	0	63.95229803
2.53	0	64.23998816
2.54	0	64.52527487
2.55	0	64.80795881
2.56	0	65.08784291
2.57	0	65.3647397
2.58	0	65.63847796
2.59	0	65.90890854
2.6	0	66.17590905
2.61	0	66.43938725
2.62	0	66.69928296
2.63	0	66.95556847
2.64	0	67.20824739
2.65	0	67.45735221
2.66	0	67.70294045
2.67	0	67.94508985
2.68	0	68.18389274
2.69	0	68.41944988
2.7	0	68.65186412
2.71	0	68.88123413
2.72	0	69.10764859
2.73	0	69.33118098
2.74	0	69.55188528
2.75	0	69.76979279
2.76	0	69.98491009
2.77	0	70.19721829
2.78	0	70.40667355
2.79	0	70.61320885
2.8	0	70.81673674
2.81	0	71.01715319
2.82	0	71.21433634
2.83	0	71.40804565
2.84	0	71.5979452
2.85	0	71.78372877
2.86	0	71.96523338
2.87	0	72.14248285
2.88	0	72.31558618
2.89	0	72.48468938
2.9	0	72.64995625
2.91	0	72.811557
2.92	0	72.96965935
2.93	0	73.12442068
2.94	0	73.27598119
2.95	0	73.42445823
2.96	0	73.56994195
2.97	0	73.71249243
2.98	0	73.85213842
2.99	0	73.98887763
3	0	74.12267856
3.01	0	74.25348363
3.02	0	74.3812136
3.03	0	74.50577284
3.04	0	74.62705528
3.05	0	74.74495072
3.06	0	74.85935119
3.07	0	74.97015707
3.08	0	75.0772826
3.09	0	75.18066078
3.1	0	75.2802471
3.11	0	75.37602235
3.12	0	75.46799404
3.13	0	75.55619677
3.14	0	75.64069124
3.15	0	75.72156228
3.16	0	75.79891585
3.17	0	75.87287526
3.18	0	75.94357687
3.19	0	76.01116538
3.2	0	76.07578908
3.21	0	76.13759518
3.22	0	76.19672557
3.23	0	76.25331298
3.24	0	76.30747799
3.25	0	76.35932672
3.26	0	76.40894945
3.27	0	76.45642015
3.28	0	76.50179685
3.29	0	76.54512285
3.3	0	76.58642869
3.31	0	76.62573467
3.32	0	76.66305388
3.33	0	76.69839546
3.34	0	76.73176805
3.35	0	76.76318316
3.36	0	76.79265839
3.37	0	76.82022029
3.38	0	76.84590672
3.39	0	76.86976882
3.4	0	76.8918722
3.41	0	76.91229764
3.42	0	76.93114112
3.43	0	76.94851321
3.44	0	76.96453799
3.45	0	76.97935151
3.46	0	76.99309984
3.47	0	77.00593695
3.48	0	77.01802236
3.49	0	77.02951891
3.5	0	77.04059047
3.51	0	77.05139996
3.52	0	77.06210667
3.53	0	77.07285929
3.54	0	77.0837852
3.55	0	77.09498043
3.56	0	77.10650151
3.57	0	77.11835981
3.58	0	77.13051816
3.59	0	77.14289012
3.6	0	77.15534148
3.61	0	77.16769404
3.62	0	77.17973125
3.63	0	77.19120545
3.64	0	77.20184621
3.65	0	77.21136942
3.66	0	77.21948667
3.67	0	77.22591445
3.68	0	77.2303828
3.69	0	77.23264297
3.7	0	77.23247385
3.71	0	77.22968779
3.72	0	77.22414911
3.73	0	77.21579063
3.74	0	77.2045999
3.75	0	77.19060158
3.76	0	77.17384354
3.77	0	77.15438552
3.78	0	77.13228974
3.79	0	77.10761329
3.8	0	77.08040199
3.81	0	77.05068593
3.82	0	77.01847624
3.83	0	76.98376342
3.84	0	76.94651673
3.85	0	76.90668485
3.86	0	76.86419739
3.87	0	76.81896729
3.88	0	76.77089379
3.89	0	76.71986582
3.9	0	76.66576567
3.91	0	76.6084727
3.92	0	76.54786694
3.93	0	76.48383248
3.94	0	76.41626048
3.95	0	76.34505171
3.96	0	76.27011863
3.97	0	76.19138683
3.98	0	76.108796
3.99	0	76.02230022
4	0	75.93186787
4.01	0	75.83748088
4.02	0	75.73913372
4.03	0	75.63683194
4.04	0	75.53059044
4.05	0	75.42043157
4.06	0	75.30638314
4.07	0	75.18847633
4.08	0	75.06674375
4.09	0	74.9412175
4.1	0	74.81192756
4.11	0	74.67890033
4.12	0	74.54215747
4.13	0	74.40171508
4.14	0	74.25758321
4.15	0	74.10976571
4.16	0	73.95826039
4.17	0	73.80305947
4.18	0	73.64415041
4.19	0	73.48151678
4.2	0	73.3151395
4.21	0	73.14499808
4.22	0	72.97107199
4.23	0	72.79334198
4.24	0	72.61179142
4.25	0	72.42640749
4.26	0	72.23718223
4.27	0	72.04411345
4.28	0	71.84720534
4.29	0	71.64646892
4.3	0	71.44192223
4.31	0	71.23359023
4.32	0	71.02152114
4.33	0	70.80583326
4.34	0	70.58667706
4.35	0	70.36423402
4.36	0	70.1386864
4.37	0	69.91020347
4.38	0	69.67893427
4.39	0	69.44500258
4.4	0	69.20850345
4.41	0	68.96950125
4.42	0	68.72802903
4.43	0	68.48408944
4.44	0	68.23765692
4.45	0	67.98868117
4.46	0	67.73709166
4.47	0	67.48280299
4.48	0	67.22572082
4.49	0	66.96574809
4.5	0	66.70279135
4.51	0	66.43676668
4.52	0	66.16760533
4.53	0	65.89525836
4.54	0	65.61970057
4.55	0	65.34093321
4.56	0	65.05898555
4.57	0	64.77391515
4.58	0	64.48580704
4.59	0	64.19477152
4.6	0	63.90094111
4.61	0	63.60446636
4.62	0	63.30551114
4.63	0	63.0042473
4.64	0	62.70084906
4.65	0	62.39548748
4.66	0	62.08832506
4.67	0	61.77951087
4.68	0	61.46917635
4.69	0	61.15743196
4.7	0	60.84436483
4.71	0	60.53003756
4.72	0	60.2144881
4.73	0	59.89773079
4.74	0	59.57975852
4.75	0	59.26054574
4.76	0	58.94005242
4.77	0	58.61822854
4.78	0	58.29501903
4.79	0	57.9703689
4.8	0	57.6442283
4.81	0	57.31655731
4.82	0	56.98733023
4.83	0	56.65653917
4.84	0	56.32419681
4.85	0	55.99033821
4.86	0	55.65502155
4.87	0	55.31832787
4.88	0	54.98035968
4.89	0	54.6412387
4.9	0	54.3011027
4.91	0	53.96010162
4.92	0	53.6183932
4.93	0	53.27613826
4.94	0	52.93349592
4.95	0	52.59061889
4.96	0	52.24764911
4.97	0	51.90471396
4.98	0	51.56192312
4.99	0	51.21936627
5	0	50.87711181
5.01	0	50.53520646
5.02	0	50.19367598
5.03	0	49.85252678
5.04	0	49.51174841
5.05	0	49.17131686
5.06	0	48.83119844
5.07	0	48.49135404
5.08	0	48.15174363
5.09	0	47.81233077
5.1	0	47.47308691
5.11	0	47.13399524
5.12	0	46.79505404
5.13	0	46.45627922
5.14	0	46.11770602
5.15	0	45.77938988
5.16	0	45.44140624
5.17	0	45.10384949
5.18	0	44.766831
5.19	0	44.43050279
5.2	0	44.09510686
5.21	0	43.76090115
5.22	0	43.42813379
5.23	0	43.09707727
5.24	0	42.76809077
5.25	0	42.4415243
5.26	0	42.11766904
5.27	0	41.79674286
5.28	0	41.47888261
5.29	0	41.16414055
5.3	0	40.85248498
5.31	0	40.5438048
5.32	0	40.23791796
5.33	0	39.93458315
5.34	0	39.6335143
5.35	0	39.33439701
5.36	0	39.03690626
5.37	0	38.74072436
5.38	0	38.44555842
5.39	0	38.15115643
5.4	0	37.85732118
5.41	0	37.56392143
5.42	0	37.27089982
5.43	0	36.97827717
5.44	0	36.68615297
5.45	0	36.39470215
5.46	0	36.10416825
5.47	0	35.81485337
5.48	0	35.52710541
5.49	0	35.24130322
5.5	0	34.95784033
5.51	0	34.67710814
5.52	0	34.3994793
5.53	0	34.12529202
5.54	0	33.85483626
5.55	0	33.58834214
5.56	0	33.32597143
5.57	0	33.06781224
5.58	0	32.81387734
5.59	0	32.56410598
5.6	0	32.31836927
5.61	0	32.07648671
5.62	0	31.83827579
5.63	0	31.60353909
5.64	0	31.37205256
5.65	0	31.14357661
5.66	0	30.91786916
5.67	0	30.6946988
5.68	0	30.47385707
5.69	0	30.25516967
5.7	0	30.03850569
5.71	0	29.82378476
5.72	0	29.6109815
5.73	0	29.40012742
5.74	0	29.19130994
5.75	0	28.9846687
5.76	0	28.78038943
5.77	0	28.57869558
5.78	0	28.37983825
5.79	0	28.18408476
5.8	0	27.99170659
5.81	0	27.80296716
5.82	0	27.61811001
5.83	0	27.43734808
5.84	0	27.26085442
5.85	0	27.08875487
5.86	0	26.92112305
5.87	0	26.75797774
5.88	0	26.59928302
5.89	0	26.44495078
5.9	0	26.29484578
5.91	0	26.14879279
5.92	0	26.00658549
5.93	0	25.86799668
5.94	0	25.73278933
5.95	0	25.60072786
5.96	0	25.47158909
5.97	0	25.34517247
5.98	0	25.22130894
5.99	0	25.09986814
6	0	24.98076356
6.01	0	24.8639555
6.02	0	24.74945166
6.03	0	24.6373054
6.04	0	24.52761177
6.05	0	24.42050155
6.06	0	24.31613353
6.07	0	24.21468557
6.08	0	24.1163447
6.09	0	24.0212969
6.1	0	23.92971691
6.11	0	23.84175866
6.12	0	23.75754674
6.13	0	23.67716924
6.14	0	23.6006724
6.15	0	23.52805725
6.16	0	23.45927828
6.17	0	23.39424436
6.18	0	23.33282174
6.19	0	23.27483889
6.2	0	23.22009302
6.21	0	23.16835797
6.22	0	23.11939286
6.23	0	23.07295138
6.24	0	23.02879095
6.25	0	22.98668153
6.26	0	22.94641358
6.27	0	22.90780479
6.28	0	22.8707053
6.29	0	22.83500121
6.3	0	22.80061621
6.31	0	22.76751123
6.32	0	22.73568238
6.33	0	22.70515698
6.34	0	22.67598818
6.35	0	22.64824835
6.36	0	22.62202146
6.37	0	22.5973951
6.38	0	22.57445217
6.39	0	22.55326301
6.4	0	22.53387799
6.41	0	22.5163212
6.42	0	22.50058531
6.43	0	22.48662793
6.44	0	22.47436959
6.45	0	22.46369346
6.46	0	22.45444663
6.47	0	22.44644311
6.48	0	22.43946814
6.49	0	22.43328373
6.5	0	22.42763501
6.51	0	22.42225726
6.52	0	22.41688396
6.53	0	22.41125943
6.54	0	22.40515525
6.55	0	22.39838597
6.56	0	22.39082227
6.57	0	22.38240129
6.58	0	22.37313333
6.59	0	22.36310507
6.6	0	22.35247888
6.61	0	22.34148861
6.62	0	22.33043189
6.63	0	22.31965957
6.64	0	22.30956266
6.65	0	22.3005575
6.66	0	22.29306993
6.67	0	22.2875191
6.68	0	22.28430175
6.69	0	22.28377778
6.7	0	22.28625579
6.71	0	22.29197742
6.72	0	22.30111343
6.73	0	22.31376369
6.74	0	22.32995957
6.75	0	22.34966811
6.76	0	22.3727984
6.77	0	22.39921042
6.78	0	22.42872563
6.79	0	22.46113918
6.8	0	22.49623281
6.81	0	22.53378809
6.82	0	22.57359923
6.83	0	22.61548504
6.84	0	22.65929929
6.85	0	22.70493931
6.86	0	22.75235213
6.87	0	22.80153826
6.88	0	22.85255271
6.89	0	22.90550335
6.9	0	22.96054686
6.91	0	23.01788224
6.92	0	23.07774258
6.93	0	23.14038512
6.94	0	23.2060805
6.95	0	23.27510136
6.96	0	23.34771113
6.97	0	23.42415328
6.98	0	23.50464168
6.99	0	23.58935243
7	0	23.67841743
7.01	0	23.77192013
7.02	0	23.86989341
7.03	0	23.97231975
7.04	0	24.07913373
7.05	0	24.19022645
7.06	0	24.30545198
7.07	0	24.42463525
7.08	0	24.54758112
7.09	0	24.67408419
7.1	0	24.80393891
7.11	0	24.93694949
7.12	0	25.0729391
7.13	0	25.21175812
7.14	0	25.35329085
7.15	0	25.49746057
7.16	0	25.64423255
7.17	0	25.79361507
7.18	0	25.94565833
7.19	0	26.10045128
7.2	0	26.25811669
7.21	0	26.41880456
7.22	0	26.58268427
7.23	0	26.74993592
7.24	0	26.92074112
7.25	0	27.09527381
7.26	0	27.27369149
7.27	0	27.4561272
7.28	0	27.64268277
7.29	0	27.83342352
7.3	0	28.02837459
7.31	0	28.22751928
7.32	0	28.43079923
7.33	0	28.63811649
7.34	0	28.84933746
7.35	0	29.06429839
7.36	0	29.28281218
7.37	0	29.50467622
7.38	0	29.72968088
7.39	0	29.95761817
7.4	0	30.18829027
7.41	0	30.42151747
7.42	0	30.65714507
7.43	0	30.89504916
7.44	0	31.13514066
7.45	0	31.37736781
7.46	0	31.62171667
7.47	0	31.86820987
7.48	0	32.11690355
7.49	0	32.36788264
7.5	0	32.62125563
7.51	0	32.87717636
7.52	0	33.13585106
7.53	0	33.39748594
7.54	0	33.66226918
7.55	0	33.93036016
7.56	0	34.20188009
7.57	0	34.47690452
7.58	0	34.75545806
7.59	0	35.03751158
7.6	0	35.32298186
7.61	0	35.61173387
7.62	0	35.90358551
7.63	0	36.1983144
7.64	0	36.49566673
7.65	0	36.7953674
7.66	0	37.09713117
7.67	0	37.40067417
7.68	0	37.70572534
7.69	0	38.01203709
7.7	0	38.31939481
7.71	0	38.62762469
7.72	0	38.93659951
7.73	0	39.24624215
7.74	0	39.55652661
7.75	0	39.86747653
7.76	0	40.17916134
7.77	0	40.49169015
7.78	0	40.8052038
7.79	0	41.11986539
7.8	0	41.43584976
7.81	0	41.75333258
7.82	0	42.07247932
7.83	0	42.3934349
7.84	0	42.71631437
7.85	0	43.04119511
7.86	0	43.36811084
7.87	0	43.69704786
7.88	0	44.02794357
7.89	0	44.36071246
7.9	0	44.69533553
7.91	0	45.03180854
7.92	0	45.37012652
7.93	0	45.71025637
7.94	0	46.05211167
7.95	0	46.39555459
7.96	0	46.74040024
7.97	0	47.08642328
7.98	0	47.43336643
7.99	0	47.78095033
8	0	48.1288845
8.01	0	48.47687862
8.02	0	48.82465377
8.03	0	49.17195298
8.04	0	49.51855068
8.05	0	49.86426046
8.06	0	50.208941
8.07	0	50.55249962
8.08	0	50.89489359
8.09	0	51.23612893
8.1	0	51.57625693
8.11	0	51.91536848
8.12	0	52.25358665
8.13	0	52.59105768
8.14	0	52.92794111
8.15	0	53.26439932
8.16	0	53.60058706
8.17	0	53.93664152
8.18	0	54.27267339
8.19	0	54.60875923
8.2	0	54.94493562
8.21	0	55.28119534
8.22	0	55.61748561
8.23	0	55.95370858
8.24	0	56.28972391
8.25	0	56.62535343
8.26	0	56.96038745
8.27	0	57.29459252
8.28	0	57.62772024
8.29	0	57.95951667
8.3	0	58.28973181
8.31	0	58.61812888
8.32	0	58.94449274
8.33	0	59.26863727
8.34	0	59.59041116
8.35	0	59.90970205
8.36	0	60.22643874
8.37	0	60.54059139
8.38	0	60.8521698
8.39	0	61.16121981
8.4	0	61.46781809
8.41	0	61.77206558
8.42	0	62.07407983
8.43	0	62.37398684
8.44	0	62.67191257
8.45	0	62.96797465
8.46	0	63.2622747
8.47	0	63.55489153
8.48	0	63.84587564
8.49	0	64.1352451
8.5	0	64.42298316
8.51	0	64.70903747
8.52	0	64.99332115
8.53	0	65.27571539
8.54	0	65.55607353
8.55	0	65.83422649
8.56	0	66.10998911
8.57	0	66.38316715
8.58	0	66.65356461
8.59	0	66.92099109
8.6	0	67.18526868
8.61	0	67.44623819
8.62	0	67.70376444
8.63	0	67.95774031
8.64	0	68.20808942
8.65	0	68.45476736
8.66	0	68.69776144
8.67	0	68.93708894
8.68	0	69.17279413
8.69	0	69.404944
8.7	0	69.63362324
8.71	0	69.85892837
8.72	0	70.08096168
8.73	0	70.29982496
8.74	0	70.51561358
8.75	0	70.72841099
8.76	0	70.93828403
8.77	0	71.14527894
8.78	0	71.34935636
8.79	0	71.55030687
8.8	0	71.74789417
8.81	0	71.94195869
8.82	0	72.13251699
8.83	0	72.31966426
8.84	0	72.5035086
8.85	0	72.68414875
8.86	0	72.861665
8.87	0	73.03611443
8.88	0	73.20752849
8.89	0	73.37591205
8.9	0	73.54124389
8.91	0	73.70347853
8.92	0	73.86254911
8.93	0	74.01837132
8.94	0	74.17084803
8.95	0	74.31987453
8.96	0	74.46534388
8.97	0	74.60715242
8.98	0	74.74520492
8.99	0	74.87941925
9	0	75.00973037
9.01	0	75.13609349
9.02	0	75.25848618
9.03	0	75.37690948
9.04	0	75.49138796
9.05	0	75.60196869
9.06	0	75.70871937
9.07	0	75.81172551
9.08	0	75.91108711
9.09	0	76.00691475
9.1	0	76.09932546
9.11	0	76.18843857
9.12	0	76.27437168
9.13	0	76.3572369
9.14	0	76.43713772
9.15	0	76.51416636
9.16	0	76.58840195
9.17	0	76.65990945
9.18	0	76.72873938
9.19	0	76.79492826
9.2	0	76.85849991
9.21	0	76.91946724
9.22	0	76.97783465
9.23	0	77.03360078
9.24	0	77.08676148
9.25	0	77.13731292
9.26	0	77.18525464
9.27	0	77.23059232
9.28	0	77.27334031
9.29	0	77.31352374
9.3	0	77.35118008
9.31	0	77.38636018
9.32	0	77.41912872
9.33	0	77.44956412
9.34	0	77.47775791
9.35	0	77.5038136
9.36	0	77.52784517
9.37	0	77.54997526
9.38	0	77.57033315
9.39	0	77.58905266
9.4	0	77.60626999
9.41	0	77.62212179
9.42	0	77.6367433
9.43	0	77.65026685
9.44	0	77.66282066
9.45	0	77.674528
9.46	0	77.68550675
9.47	0	77.69586936
9.48	0	77.70572315
9.49	0	77.71517099
9.5	0	77.72431221
9.51	0	77.73324381
9.52	0	77.74206083
9.53	0	77.75085229
9.54	0	77.75969291
9.55	0	77.76863506
9.56	0	77.77770222
9.57	0	77.78688417
9.58	0	77.79613411
9.59	0	77.80536764
9.6	0	77.81446366
9.61	0	77.82326698
9.62	0	77.83159244
9.63	0	77.83923029
9.64	0	77.84595252
9.65	0	77.85151981
9.66	0	77.85568875
9.67	0	77.85821897
9.68	0	77.85887987
9.69	0	77.85745671
9.7	0	77.85376211
9.71	0	77.84765799
9.72	0	77.83905542
9.73	0	77.82790215
9.74	0	77.81417236
9.75	0	77.79785842
9.76	0	77.77896385
9.77	0	77.75749733
9.78	0	77.73346761
9.79	0	77.70687934
9.8	0	77.67772974
9.81	0	77.64600618
9.82	0	77.61168463
9.83	0	77.5747288
9.84	0	77.53509019
9.85	0	77.49270865
9.86	0	77.44751357
9.87	0	77.39942549
9.88	0	77.34835807
9.89	0	77.29422028
9.9	0	77.23691866
9.91	0	77.17635965
9.92	0	77.11245172
9.93	0	77.04510746
9.94	0	76.97424528
9.95	0	76.89979096
9.96	0	76.82167871
9.97	0	76.73985205
9.98	0	76.65426421
9.99	0	76.5648782
10	0	76.47166666
10.01	0	76.37461126
10.02	0	76.27370198
10.03	0	76.16893613
10.04	0	76.0603172
10.05	0	75.94785363
10.06	0	75.83155751
10.07	0	75.71144332
10.08	0	75.58752667
10.09	0	75.45982315
10.1	0	75.32834734
10.11	0	75.19311193
10.12	0	75.05412711
10.13	0	74.91140004
10.14	0	74.76493467
10.15	0	74.61473167
10.16	0	74.46078862
10.17	0	74.30310033
10.18	0	74.14165937
10.19	0	73.97645673
10.2	0	73.80748253
10.21	0	73.63472685
10.22	0	73.45818058
10.23	0	73.27783623
10.24	0	73.09368873
10.25	0	72.90573617
10.26	0	72.71398036
10.27	0	72.5184274
10.28	0	72.31908797
10.29	0	72.11597758
10.3	0	71.90911659
10.31	0	71.69853012
10.32	0	71.48424782
10.33	0	71.26630347
10.34	0	71.04474358
10.35	0	70.81967855
10.36	0	70.59125886
10.37	0	70.35967093
10.38	0	70.12510227
10.39	0	69.88772575
10.4	0	69.64769195
10.41	0	69.40512412
10.42	0	69.16011486
10.43	0	68.91272428
10.44	0	68.66297973
10.45	0	68.41087695
10.46	0	68.1563827
10.47	0	67.89943863
10.48	0	67.63996618
10.49	0	67.37787239
10.5	0	67.11305619
10.51	0	66.84541499
10.52	0	66.57485128
10.53	0	66.30127883
10.54	0	66.02462838
10.55	0	65.74485249
10.56	0	65.46192931
10.57	0	65.17586527
10.58	0	64.88669642
10.59	0	64.59448852
10.6	0	64.2993358
10.61	0	64.00135848
10.62	0	63.70069927
10.63	0	63.39751885
10.64	0	63.09199065
10.65	0	62.7842952
10.66	0	62.4746142
10.67	0	62.16312461
10.68	0	61.84999312
10.69	0	61.53537108
10.7	0	61.21939026
10.71	0	60.90215951
10.72	0	60.58376256
10.73	0	60.26425697
10.74	0	59.94367431
10.75	0	59.62202148
10.76	0	59.29928325
10.77	0	58.97542571
10.78	0	58.65040059
10.79	0	58.32415012
10.8	0	57.9966124
10.81	0	57.66772683
10.82	0	57.3374394
10.83	0	57.00570773
10.84	0	56.67250542
10.85	0	56.33782572
10.86	0	56.00168423
10.87	0	55.66412055
10.88	0	55.32519885
10.89	0	54.98500728
10.9	0	54.64365632
10.91	0	54.30127612
10.92	0	53.95801294
10.93	0	53.61402491
10.94	0	53.26947729
10.95	0	52.92453738
10.96	0	52.57936944
10.97	0	52.2341298
10.98	0	51.88896228
10.99	0	51.54399434
11	0	51.19933393
11.01	0	50.85506732
11.02	0	50.51125789
11.03	0	50.16794606
11.04	0	49.82515024
11.05	0	49.48286877
11.06	0	49.14108285
11.07	0	48.79976015
11.08	0	48.45885907
11.09	0	48.11833338
11.1	0	47.77813703
11.11	0	47.43822891
11.12	0	47.09857732
11.13	0	46.75916399
11.14	0	46.41998742
11.15	0	46.0810654
11.16	0	45.74243663
11.17	0	45.40416133
11.18	0	45.06632085
11.19	0	44.72901647
11.2	0	44.3924018
11.21	0	44.05671989
11.22	0	43.72222772
11.23	0	43.38917605
11.24	0	43.05785492
11.25	0	42.72863968
11.26	0	42.40188914
11.27	0	42.07790301
11.28	0	41.7569079
11.29	0	41.43904923
11.3	0	41.12438721
11.31	0	40.81289711
11.32	0	40.50447347
11.33	0	40.19893824
11.34	0	39.89605231
11.35	0	39.59552983
11.36	0	39.29705474
11.37	0	39.00029846
11.38	0	38.70493806
11.39	0	38.41067397
11.4	0	38.11724634
11.41	0	37.82444936
11.42	0	37.53214279
11.43	0	37.24026032
11.44	0	36.94881419
11.45	0	36.65789613
11.46	0	36.36767442
11.47	0	36.07838735
11.48	0	35.79033334
11.49	0	35.50385836
11.5	0	35.21934107
11.51	0	34.93717653
11.52	0	34.6577593
11.53	0	34.38146653
11.54	0	34.10864214
11.55	0	33.83958257
11.56	0	33.5745249
11.57	0	33.31363798
11.58	0	33.05701668
11.59	0	32.80467993
11.6	0	32.55657215
11.61	0	32.31256843
11.62	0	32.07249134
11.63	0	31.83616013
11.64	0	31.60337603
11.65	0	31.37391183
11.66	0	31.14752317
11.67	0	30.92396184
11.68	0	30.70298913
11.69	0	30.48438856
11.7	0	30.26797729
11.71	0	30.05361581
11.72	0	29.84121535
11.73	0	29.63074282
11.74	0	29.42222286
11.75	0	29.21573721
11.76	0	29.01142118
11.77	0	28.80945765
11.78	0	28.61006879
11.79	0	28.41350589
11.8	0	28.22003795
11.81	0	28.02993939
11.82	0	27.8434776
11.83	0	27.66090093
11.84	0	27.48242759
11.85	0	27.30823609
11.86	0	27.13845757
11.87	0	26.97317047
11.88	0	26.81239769
11.89	0	26.65610637
11.9	0	26.5042103
11.91	0	26.35657478
11.92	0	26.21302373
11.93	0	26.07334855
11.94	0	25.93731845
11.95	0	25.80469155
11.96	0	25.67522636
11.97	0	25.54869302
11.98	0	25.42488371
11.99	0	25.3036218
12	0	25.18476938
12.01	0	25.06823266
12.02	0	24.95396519
12.03	0	24.84196869
12.04	0	24.73229148
12.05	0	24.62502463
12.06	0	24.52029613
12.07	0	24.41826317
12.08	0	24.31910315
12.09	0	24.22300374
12.1	0	24.13015247
12.11	0	24.04072643
12.12	0	23.95488243
12.13	0	23.87274826
12.14	0	23.79441533
12.15	0	23.71993302
12.16	0	23.64930509
12.17	0	23.58248818
12.18	0	23.51939255
12.19	0	23.45988491
12.2	0	23.40379319
12.21	0	23.35091304
12.22	0	23.30101569
12.23	0	23.25385667
12.24	0	23.20918522
12.25	0	23.16675353
12.26	0	23.12632581
12.27	0	23.08768633
12.28	0	23.05064644
12.29	0	23.01504996
12.3	0	22.98077686
12.31	0	22.9477451
12.32	0	22.91591046
12.33	0	22.88526454
12.34	0	22.85583095
12.35	0	22.82765995
12.36	0	22.80082183
12.37	0	22.77539934
12.38	0	22.75147954
12.39	0	22.72914551
12.4	0	22.70846827
12.41	0	22.68949926
12.42	0	22.67226385
12.43	0	22.65675605
12.44	0	22.6429347
12.45	0	22.63072129
12.46	0	22.61999948
12.47	0	22.61061637
12.48	0	22.60238529
12.49	0	22.59509012
12.5	0	22.58849076
12.51	0	22.5823295
12.52	0	22.57633855
12.53	0	22.57025002
12.54	0	22.56380815
12.55	0	22.55678114
12.56	0	22.54897155
12.57	0	22.54022505
12.58	0	22.53043672
12.59	0	22.51955515
12.6	0	22.50758375
12.61	0	22.4945796
12.62	0	22.48064969
12.63	0	22.465945
12.64	0	22.45065257
12.65	0	22.43498601
12.66	0	22.41917499
12.67	0	22.40345414
12.68	0	22.38805186
12.69	0	22.37317968
12.7	0	22.35902259
12.71	0	22.34573077
12.72	0	22.33341307
12.73	0	22.32213264
12.74	0	22.31190474
12.75	0	22.30269684
12.76	0	22.29443106
12.77	0	22.28698863
12.78	0	22.28021628
12.79	0	22.27393412
12.8	0	22.26794458
12.81	0	22.26204216
12.82	0	22.25602319
12.83	0	22.24969546
12.84	0	22.24288703
12.85	0	22.23545398
12.86	0	22.22728662
12.87	0	22.21831399
12.88	0	22.20850652
12.89	0	22.19787656
12.9	0	22.18647708
12.91	0	22.17439835
12.92	0	22.16176307
12.93	0	22.14871994
12.94	0	22.1354362
12.95	0	22.12208945
12.96	0	22.10885907
12.97	0	22.09591771
12.98	0	22.08342334
12.99	0	22.07151195
13	0	22.06029164
13.01	0	22.04983791
13.02	0	22.04019071
13.03	0	22.03135319
13.04	0	22.02329216
13.05	0	22.01594038
13.06	0	22.00920025
13.07	0	22.00294907
13.08	0	21.99704519
13.09	0	21.99133513
13.1	0	21.98566097
13.11	0	21.9798679
13.12	0	21.97381147
13.13	0	21.96736419
13.14	0	21.96042118
13.15	0	21.95290473
13.16	0	21.94476743
13.17	0	21.9359938
13.18	0	21.92660045
13.19	0	21.91663469
13.2	0	21.90617174
13.21	0	21.89531065
13.22	0	21.88416925
13.23	0	21.87287822
13.24	0	21.86157472
13.25	0	21.8503958
13.26	0	21.83947195
13.27	0	21.82892108
13.28	0	21.81884315
13.29	0	21.80931578
13.3	0	21.800391
13.31	0	21.79209322
13.32	0	21.78441857
13.33	0	21.77733559
13.34	0	21.77078719
13.35	0	21.76469382
13.36	0	21.75895762
13.37	0	21.75346734
13.38	0	21.74810386
13.39	0	21.74274591
13.4	0	21.73727586
13.41	0	21.73158516
13.42	0	21.72557928
13.43	0	21.71918193
13.44	0	21.71233824
13.45	0	21.70501702
13.46	0	21.69721172
13.47	0	21.68894034
13.48	0	21.68024406
13.49	0	21.67118492
13.5	0	21.66184253
