no_integral_motion
version=1
nRows=1351
nColumns=3
inDegrees=yes
endheader
time	r_shoulder_elev	r_elbow_flex
0	0	20
0.01	0	19.99669491
0.02	0	19.98701182
0.03	0	19.9715265
0.04	0	19.95108701
0.05	0	19.92675669
0.06	0	19.89975887
0.07	0	19.87141667
0.08	0	19.84308951
0.09	0	19.81610909
0.1	0	19.79171752
0.11	0	19.77101062
0.12	0	19.75488895
0.13	0	19.74401869
0.14	0	19.73880432
0.15	0	19.73937421
0.16	0	19.74557357
0.17	0	19.75696985
0.18	0	19.77288827
0.19	0	19.79245726
0.2	0	19.81465715
0.21	0	19.83837181
0.22	0	19.86244297
0.23	0	19.88572534
0.24	0	19.90714005
0.25	0	19.92572406
0.26	0	19.94067308
0.27	0	19.95137614
0.28	0	19.95744021
0.29	0	19.95870367
0.3	0	19.95523984
0.31	0	19.94733515
0.32	0	19.93545678
0.33	0	19.92024678
0.34	0	19.90249009
0.35	0	19.8830746
0.36	0	19.86294757
0.37	0	19.84307026
0.38	0	19.82437267
0.39	0	19.8077105
0.4	0	19.79382632
0.41	0	19.78331675
0.42	0	19.77660699
0.43	0	19.773934
0.44	0	19.7753386
0.45	0	19.78066094
0.46	0	19.78954998
0.47	0	19.80149069
0.48	0	19.81583719
0.49	0	19.83184786
0.5	0	19.8487227
0.51	0	19.86564226
0.52	0	19.88180698
0.53	0	19.89647718
0.54	0	19.90901153
0.55	0	19.91890048
0.56	0	19.92579247
0.57	0	19.92951195
0.58	0	19.93006831
0.59	0	19.92765665
0.6	0	19.92263933
0.61	0	19.91552403
0.62	0	19.9069543
0.63	0	19.89768175
0.64	0	19.88853286
0.65	0	19.88037292
0.66	0	19.87406879
0.67	0	19.8704521
0.68	0	19.87028469
0.69	0	19.8742247
0.7	0	19.88279351
0.71	0	19.89636017
0.72	0	19.91513668
0.73	0	19.93917854
0.74	0	19.96839054
0.75	0	20.00253852
0.76	0	20.04126701
0.77	0	20.08412166
0.78	0	20.13057557
0.79	0	20.18005826
0.8	0	20.23198583
0.81	0	20.2857911
0.82	0	20.34095218
0.83	0	20.39701841
0.84	0	20.45363226
0.85	0	20.51054644
0.86	0	20.56763533
0.87	0	20.62490041
0.88	0	20.68246947
0.89	0	20.74058977
0.9	0	20.79961567
0.91	0	20.85999139
0.92	0	20.92222977
0.93	0	20.98688842
0.94	0	21.05454409
0.95	0	21.1257668
0.96	0	21.20109485
0.97	0	21.28101176
0.98	0	21.3659263
0.99	0	21.45615627
1	0	21.5519168
1.01	0	21.65331342
1.02	0	21.76034034
1.03	0	21.87288358
1.04	0	21.99072907
1.05	0	22.11357496
1.06	0	22.24104777
1.07	0	22.37272139
1.08	0	22.50813829
1.09	0	22.64683163
1.1	0	22.78834754
1.11	0	22.93226637
1.12	0	23.07822196
1.13	0	23.22591814
1.14	0	23.37514157
1.15	0	23.52577044
1.16	0	23.67777876
1.17	0	23.83123582
1.18	0	23.98630124
1.19	0	24.14321569
1.2	0	24.30228782
1.21	0	24.46387821
1.22	0	24.62838098
1.23	0	24.7962041
1.24	0	24.96774925
1.25	0	25.14339233
1.26	0	25.32346536
1.27	0	25.50824064
1.28	0	25.69791797
1.29	0	25.8926153
1.3	0	26.09236336
1.31	0	26.29710431
1.32	0	26.50669456
1.33	0	26.7209115
1.34	0	26.93946376
1.35	0	27.16200463
1.36	0	27.38814783
1.37	0	27.61748493
1.38	0	27.84960371
1.39	0	28.08410631
1.4	0	28.32062665
1.41	0	28.55884598
1.42	0	28.79850613
1.43	0	29.03941955
1.44	0	29.28147591
1.45	0	29.52464484
1.46	0	29.76897483
1.47	0	30.01458822
1.48	0	30.26167273
1.49	0	30.51046985
1.5	0	30.7612608
1.51	0	31.01435066
1.52	0	31.27005154
1.53	0	31.5286656
1.54	0	31.79046862
1.55	0	32.05569515
1.56	0	32.32452567
1.57	0	32.59707676
1.58	0	32.87341845
1.59	0	33.15359919
1.6	0	33.43759803
1.61	0	33.72531388
1.62	0	34.01656886
1.63	0	34.31111536
1.64	0	34.60864642
1.65	0	34.90880877
1.66	0	35.21121801
1.67	0	35.51547506
1.68	0	35.82118327
1.69	0	36.12796513
1.7	0	36.435478
1.71	0	36.7434279
1.72	0	37.05158095
1.73	0	37.35977158
1.74	0	37.66790756
1.75	0	37.97597121
1.76	0	38.28401704
1.77	0	38.59216595
1.78	0	38.90059612
1.79	0	39.20953131
1.8	0	39.519227
1.81	0	39.82995518
1.82	0	40.14198851
1.83	0	40.45558456
1.84	0	40.77097104
1.85	0	41.08833261
1.86	0	41.40779995
1.87	0	41.72944148
1.88	0	42.05325833
1.89	0	42.37918244
1.9	0	42.7070782
1.91	0	43.03674717
1.92	0	43.36793592
1.93	0	43.70034633
1.94	0	44.0336481
1.95	0	44.36751877
1.96	0	44.70174438
1.97	0	45.0361746
1.98	0	45.37071454
1.99	0	45.70529977
2	0	46.039873
2.01	0	46.3743841
2.02	0	46.70878976
2.03	0	47.04305286
2.04	0	47.37714151
2.05	0	47.71102791
2.06	0	48.04468701
2.07	0	48.378095
2.08	0	48.71122785
2.09	0	49.04405981
2.1	0	49.37656206
2.11	0	49.7087015
2.12	0	50.0404398
2.13	0	50.37173267
2.14	0	50.70252949
2.15	0	51.0327732
2.16	0	51.36240053
2.17	0	51.69134252
2.18	0	52.01952536
2.19	0	52.34687133
2.2	0	52.67330009
2.21	0	52.99872991
2.22	0	53.32307911
2.23	0	53.64626732
2.24	0	53.96821683
2.25	0	54.28885366
2.26	0	54.6081085
2.27	0	54.92591745
2.28	0	55.24222242
2.29	0	55.55697132
2.3	0	55.87011793
2.31	0	56.18162155
2.32	0	56.49144632
2.33	0	56.79956045
2.34	0	57.10593516
2.35	0	57.41054363
2.36	0	57.71335981
2.37	0	58.01435724
2.38	0	58.31350801
2.39	0	58.61078169
2.4	0	58.9061446
2.41	0	59.19955907
2.42	0	59.49098313
2.43	0	59.78037024
2.44	0	60.06766944
2.45	0	60.35282562
2.46	0	60.63578001
2.47	0	60.91647094
2.48	0	61.19483467
2.49	0	61.47080635
2.5	0	61.74432104
2.51	0	62.01531475
2.52	0	62.28372541
2.53	0	62.5494938
2.54	0	62.81256432
2.55	0	63.07288559
2.56	0	63.33041093
2.57	0	63.58509857
2.58	0	63.83691166
2.59	0	64.08581817
2.6	0	64.33179048
2.61	0	64.57480488
2.62	0	64.81484093
2.63	0	65.0518807
2.64	0	65.28590797
2.65	0	65.51690742
2.66	0	65.74486381
2.67	0	65.96976125
2.68	0	66.19158258
2.69	0	66.4103088
2.7	0	66.62591879
2.71	0	66.83838902
2.72	0	67.04769357
2.73	0	67.25380423
2.74	0	67.45669079
2.75	0	67.6563215
2.76	0	67.85266356
2.77	0	68.04568378
2.78	0	68.23534926
2.79	0	68.4216281
2.8	0	68.60449007
2.81	0	68.78390731
2.82	0	68.95985487
2.83	0	69.13231123
2.84	0	69.30125865
2.85	0	69.46668341
2.86	0	69.62857593
2.87	0	69.78693075
2.88	0	69.94174635
2.89	0	70.09302492
2.9	0	70.24077192
2.91	0	70.38499574
2.92	0	70.52570712
2.93	0	70.66291865
2.94	0	70.79664427
2.95	0	70.92689878
2.96	0	71.05369738
2.97	0	71.17705141
2.98	0	71.29690251
2.99	0	71.41313831
3	0	71.52566072
3.01	0	71.63439467
3.02	0	71.73932818
3.03	0	71.84056171
3.04	0	71.93825308
3.05	0	72.03257632
3.06	0	72.12370371
3.07	0	72.21179568
3.08	0	72.29699416
3.09	0	72.37941773
3.1	0	72.45915856
3.11	0	72.53628069
3.12	0	72.61081999
3.13	0	72.6827854
3.14	0	72.75216156
3.15	0	72.8189125
3.16	0	72.88298623
3.17	0	72.94431997
3.18	0	73.00284573
3.19	0	73.05849594
3.2	0	73.11120898
3.21	0	73.16093411
3.22	0	73.20763595
3.23	0	73.2512979
3.24	0	73.29192481
3.25	0	73.32954444
3.26	0	73.36420796
3.27	0	73.39598937
3.28	0	73.42498401
3.29	0	73.45130618
3.3	0	73.47508611
3.31	0	73.49646646
3.32	0	73.51559846
3.33	0	73.53263798
3.34	0	73.54774173
3.35	0	73.56106364
3.36	0	73.57275176
3.37	0	73.58294564
3.38	0	73.59177442
3.39	0	73.59935556
3.4	0	73.60579436
3.41	0	73.61118412
3.42	0	73.61560699
3.43	0	73.61913544
3.44	0	73.62183412
3.45	0	73.6237622
3.46	0	73.62497584
3.47	0	73.62553086
3.48	0	73.62548534
3.49	0	73.62490227
3.5	0	73.62385455
3.51	0	73.62242975
3.52	0	73.62072731
3.53	0	73.6188503
3.54	0	73.61689419
3.55	0	73.61493637
3.56	0	73.61302792
3.57	0	73.6111875
3.58	0	73.60939769
3.59	0	73.60760351
3.6	0	73.60571318
3.61	0	73.60360071
3.62	0	73.6011101
3.63	0	73.59806077
3.64	0	73.59425386
3.65	0	73.58947891
3.66	0	73.58352058
3.67	0	73.57616508
3.68	0	73.56720594
3.69	0	73.55644899
3.7	0	73.5437163
3.71	0	73.52884893
3.72	0	73.5117087
3.73	0	73.49217876
3.74	0	73.4701632
3.75	0	73.44558584
3.76	0	73.41838824
3.77	0	73.38852726
3.78	0	73.3559722
3.79	0	73.32070179
3.8	0	73.28270114
3.81	0	73.24195879
3.82	0	73.19846401
3.83	0	73.1522044
3.84	0	73.10316386
3.85	0	73.05132109
3.86	0	72.99664842
3.87	0	72.93911125
3.88	0	72.87866782
3.89	0	72.81526949
3.9	0	72.74886134
3.91	0	72.67938311
3.92	0	72.60677035
3.93	0	72.53095582
3.94	0	72.45187094
3.95	0	72.36944727
3.96	0	72.28361801
3.97	0	72.19431936
3.98	0	72.10149178
3.99	0	72.00508106
4	0	71.90503915
4.01	0	71.80132479
4.02	0	71.69390388
4.03	0	71.58274962
4.04	0	71.46784239
4.05	0	71.34916948
4.06	0	71.22672642
4.07	0	71.10056294
4.08	0	70.97079655
4.09	0	70.83749828
4.1	0	70.70073163
4.11	0	70.56055764
4.12	0	70.41702881
4.13	0	70.27018575
4.14	0	70.12005563
4.15	0	69.9666514
4.16	0	69.80997202
4.17	0	69.65000329
4.18	0	69.4867193
4.19	0	69.32008447
4.2	0	69.15005585
4.21	0	68.9765859
4.22	0	68.79962522
4.23	0	68.61912551
4.24	0	68.43504227
4.25	0	68.24733739
4.26	0	68.05598141
4.27	0	67.86095534
4.28	0	67.66225205
4.29	0	67.45987717
4.3	0	67.25384942
4.31	0	67.04420042
4.32	0	66.83097401
4.33	0	66.61422508
4.34	0	66.39401804
4.35	0	66.17042495
4.36	0	65.94352338
4.37	0	65.71339416
4.38	0	65.48011916
4.39	0	65.24377896
4.4	0	65.00445087
4.41	0	64.76220707
4.42	0	64.51711306
4.43	0	64.26922659
4.44	0	64.01859687
4.45	0	63.76526429
4.46	0	63.50926059
4.47	0	63.25060939
4.48	0	62.98932714
4.49	0	62.72542443
4.5	0	62.45890751
4.51	0	62.18978001
4.52	0	61.91804484
4.53	0	61.64370603
4.54	0	61.36677055
4.55	0	61.08724997
4.56	0	60.80516195
4.57	0	60.52053138
4.58	0	60.23339126
4.59	0	59.9437832
4.6	0	59.65175754
4.61	0	59.35737311
4.62	0	59.0606966
4.63	0	58.76180168
4.64	0	58.46076773
4.65	0	58.15767847
4.66	0	57.85262036
4.67	0	57.54568094
4.68	0	57.23694715
4.69	0	56.92650378
4.7	0	56.61443198
4.71	0	56.30080802
4.72	0	55.98570233
4.73	0	55.66917877
4.74	0	55.35129426
4.75	0	55.03209879
4.76	0	54.71163566
4.77	0	54.38994213
4.78	0	54.06705031
4.79	0	53.74298824
4.8	0	53.41778125
4.81	0	53.09145335
4.82	0	52.76402867
4.83	0	52.43553296
4.84	0	52.10599491
4.85	0	51.77544735
4.86	0	51.44392831
4.87	0	51.11148173
4.88	0	50.77815794
4.89	0	50.44401387
4.9	0	50.10911293
4.91	0	49.77352455
4.92	0	49.43732354
4.93	0	49.10058915
4.94	0	48.76340392
4.95	0	48.42585249
4.96	0	48.08802019
4.97	0	47.74999174
4.98	0	47.41184993
4.99	0	47.0736744
5	0	46.73554062
5.01	0	46.39751904
5.02	0	46.0596745
5.03	0	45.72206587
5.04	0	45.38474606
5.05	0	45.04776219
5.06	0	44.71115647
5.07	0	44.37500556
5.08	0	44.03945495
5.09	0	43.70464874
5.1	0	43.37071771
5.11	0	43.0378361
5.12	0	42.70626475
5.13	0	42.37625462
5.14	0	42.04801244
5.15	0	41.72169161
5.16	0	41.39738784
5.17	0	41.07513771
5.18	0	40.75492014
5.19	0	40.43666065
5.2	0	40.12023807
5.21	0	39.8054934
5.22	0	39.49224046
5.23	0	39.18027758
5.24	0	38.86939996
5.25	0	38.55941199
5.26	0	38.25013891
5.27	0	37.94143741
5.28	0	37.63320445
5.29	0	37.32538412
5.3	0	37.01797211
5.31	0	36.71101768
5.32	0	36.404623
5.33	0	36.09893999
5.34	0	35.79416479
5.35	0	35.49053023
5.36	0	35.18829658
5.37	0	34.8877411
5.38	0	34.58914689
5.39	0	34.29279158
5.4	0	33.99893643
5.41	0	33.70781621
5.42	0	33.41963062
5.43	0	33.13453728
5.44	0	32.85264697
5.45	0	32.57402101
5.46	0	32.29867109
5.47	0	32.02657167
5.48	0	31.75770785
5.49	0	31.49204825
5.5	0	31.22952519
5.51	0	30.97003911
5.52	0	30.71346564
5.53	0	30.45966382
5.54	0	30.20848496
5.55	0	29.95978171
5.56	0	29.7134169
5.57	0	29.4692718
5.58	0	29.22725322
5.59	0	28.98729942
5.6	0	28.74938427
5.61	0	28.51351965
5.62	0	28.27975599
5.63	0	28.04818094
5.64	0	27.81891616
5.65	0	27.5921126
5.66	0	27.36794431
5.67	0	27.1466013
5.68	0	26.92828155
5.69	0	26.71318284
5.7	0	26.50149455
5.71	0	26.29338998
5.72	0	26.08901949
5.73	0	25.88850471
5.74	0	25.69193424
5.75	0	25.49936087
5.76	0	25.31080053
5.77	0	25.12623291
5.78	0	24.94560386
5.79	0	24.76882916
5.8	0	24.59579973
5.81	0	24.42638788
5.82	0	24.26045426
5.83	0	24.09785517
5.84	0	23.93845006
5.85	0	23.78210848
5.86	0	23.62871658
5.87	0	23.47818254
5.88	0	23.33044083
5.89	0	23.18545513
5.9	0	23.04321967
5.91	0	22.90375909
5.92	0	22.76712683
5.93	0	22.63340199
5.94	0	22.50268504
5.95	0	22.37509253
5.96	0	22.25075096
5.97	0	22.12979026
5.98	0	22.01233712
5.99	0	21.89850851
6	0	21.78840565
6.01	0	21.68210877
6.02	0	21.57967291
6.03	0	21.4811248
6.04	0	21.38646118
6.05	0	21.29564839
6.06	0	21.20862343
6.07	0	21.12529621
6.08	0	21.04555309
6.09	0	20.96926131
6.1	0	20.89627419
6.11	0	20.82643687
6.12	0	20.75959219
6.13	0	20.69558651
6.14	0	20.6342752
6.15	0	20.57552749
6.16	0	20.51923045
6.17	0	20.46529206
6.18	0	20.41364302
6.19	0	20.36423746
6.2	0	20.31705237
6.21	0	20.27208591
6.22	0	20.22935459
6.23	0	20.18888963
6.24	0	20.15073251
6.25	0	20.11493008
6.26	0	20.08152937
6.27	0	20.05057244
6.28	0	20.02209143
6.29	0	19.99610406
6.3	0	19.97260986
6.31	0	19.95158722
6.32	0	19.93299133
6.33	0	19.9167533
6.34	0	19.90278023
6.35	0	19.89095637
6.36	0	19.88114524
6.37	0	19.87319258
6.38	0	19.86692998
6.39	0	19.86217906
6.4	0	19.85875584
6.41	0	19.85647523
6.42	0	19.8551554
6.43	0	19.85462172
6.44	0	19.85471021
6.45	0	19.85526961
6.46	0	19.85616284
6.47	0	19.85726926
6.48	0	19.85848551
6.49	0	19.85972502
6.5	0	19.86091636
6.51	0	19.86200074
6.52	0	19.86292989
6.53	0	19.86366792
6.54	0	19.86419734
6.55	0	19.86452473
6.56	0	19.86468512
6.57	0	19.86474478
6.58	0	19.86480228
6.59	0	19.86498797
6.6	0	19.8654618
6.61	0	19.86640974
6.62	0	19.86803896
6.63	0	19.87057203
6.64	0	19.87424052
6.65	0	19.87927819
6.66	0	19.88591421
6.67	0	19.89436678
6.68	0	19.90483717
6.69	0	19.91750483
6.7	0	19.93252339
6.71	0	19.95001799
6.72	0	19.97008384
6.73	0	19.99278612
6.74	0	20.0181612
6.75	0	20.04621903
6.76	0	20.07694658
6.77	0	20.11031219
6.78	0	20.1462705
6.79	0	20.18476789
6.8	0	20.22574798
6.81	0	20.26915707
6.82	0	20.31494921
6.83	0	20.36309073
6.84	0	20.41356393
6.85	0	20.46636994
6.86	0	20.52153048
6.87	0	20.57908855
6.88	0	20.63910805
6.89	0	20.7016723
6.9	0	20.76688165
6.91	0	20.83485026
6.92	0	20.90570216
6.93	0	20.97956696
6.94	0	21.05657522
6.95	0	21.13685382
6.96	0	21.22052153
6.97	0	21.30768498
6.98	0	21.39843511
6.99	0	21.49284443
7	0	21.59096507
7.01	0	21.69282772
7.02	0	21.79844149
7.03	0	21.90779474
7.04	0	22.02085671
7.05	0	22.13757998
7.06	0	22.25790357
7.07	0	22.38175651
7.08	0	22.50906176
7.09	0	22.63974026
7.1	0	22.77371498
7.11	0	22.91091465
7.12	0	23.05127717
7.13	0	23.19475243
7.14	0	23.34130446
7.15	0	23.49091286
7.16	0	23.6435733
7.17	0	23.79929733
7.18	0	23.9581113
7.19	0	24.12005458
7.2	0	24.28517707
7.21	0	24.45353627
7.22	0	24.6251939
7.23	0	24.80021241
7.24	0	24.97865131
7.25	0	25.16056374
7.26	0	25.34599329
7.27	0	25.53497127
7.28	0	25.7275145
7.29	0	25.9236238
7.3	0	26.1232832
7.31	0	26.32645984
7.32	0	26.53310473
7.33	0	26.74315404
7.34	0	26.95653124
7.35	0	27.17314956
7.36	0	27.39291502
7.37	0	27.61572962
7.38	0	27.84149467
7.39	0	28.0701141
7.4	0	28.30149756
7.41	0	28.53556309
7.42	0	28.77223947
7.43	0	29.01146785
7.44	0	29.25320282
7.45	0	29.49741276
7.46	0	29.74407952
7.47	0	29.99319735
7.48	0	30.24477132
7.49	0	30.49881509
7.5	0	30.75534839
7.51	0	31.01439406
7.52	0	31.27597508
7.53	0	31.54011148
7.54	0	31.80681749
7.55	0	32.07609888
7.56	0	32.34795081
7.57	0	32.62235664
7.58	0	32.89931573
7.59	0	33.17886386
7.6	0	33.46102485
7.61	0	33.7457995
7.62	0	34.03316354
7.63	0	34.32306679
7.64	0	34.61543367
7.65	0	34.91016483
7.66	0	35.20713992
7.67	0	35.50622132
7.68	0	35.8072586
7.69	0	36.11009365
7.7	0	36.41456596
7.71	0	36.7205181
7.72	0	37.02780091
7.73	0	37.33627818
7.74	0	37.64583078
7.75	0	37.95635978
7.76	0	38.26778862
7.77	0	38.58006414
7.78	0	38.89315643
7.79	0	39.20705764
7.8	0	39.52177958
7.81	0	39.83735049
7.82	0	40.15381098
7.83	0	40.47120946
7.84	0	40.78959717
7.85	0	41.10902316
7.86	0	41.42952941
7.87	0	41.75114636
7.88	0	42.07388902
7.89	0	42.39775387
7.9	0	42.72271673
7.91	0	43.04873158
7.92	0	43.37573052
7.93	0	43.70362474
7.94	0	44.03230656
7.95	0	44.36167855
7.96	0	44.69174166
7.97	0	45.02254
7.98	0	45.35414356
7.99	0	45.68661876
8	0	46.0199981
8.01	0	46.35427624
8.02	0	46.68940814
8.03	0	47.0253091
8.04	0	47.36185677
8.05	0	47.69889487
8.06	0	48.03623851
8.07	0	48.37368087
8.08	0	48.71100073
8.09	0	49.04797069
8.1	0	49.38436555
8.11	0	49.71997041
8.12	0	50.05458825
8.13	0	50.38804648
8.14	0	50.72020226
8.15	0	51.05094623
8.16	0	51.3802047
8.17	0	51.70793996
8.18	0	52.03414894
8.19	0	52.35886018
8.2	0	52.68212938
8.21	0	53.00403362
8.22	0	53.32466482
8.23	0	53.64412241
8.24	0	53.96250597
8.25	0	54.27990786
8.26	0	54.59640642
8.27	0	54.91205993
8.28	0	55.2269017
8.29	0	55.54093644
8.3	0	55.85413807
8.31	0	56.16644905
8.32	0	56.47778132
8.33	0	56.78801855
8.34	0	57.09701987
8.35	0	57.40462459
8.36	0	57.71065789
8.37	0	58.014937
8.38	0	58.31727774
8.39	0	58.61750095
8.4	0	58.91543861
8.41	0	59.2109393
8.42	0	59.50387277
8.43	0	59.79413345
8.44	0	60.08164271
8.45	0	60.36634978
8.46	0	60.64823136
8.47	0	60.92728999
8.48	0	61.20355115
8.49	0	61.47705944
8.5	0	61.74787393
8.51	0	62.01606295
8.52	0	62.28169859
8.53	0	62.54485121
8.54	0	62.80558417
8.55	0	63.06394907
8.56	0	63.31998171
8.57	0	63.57369892
8.58	0	63.82509639
8.59	0	64.0741477
8.6	0	64.32080429
8.61	0	64.56499671
8.62	0	64.8066367
8.63	0	65.04562026
8.64	0	65.28183142
8.65	0	65.51514643
8.66	0	65.74543837
8.67	0	65.97258174
8.68	0	66.19645697
8.69	0	66.41695454
8.7	0	66.63397854
8.71	0	66.84744957
8.72	0	67.05730682
8.73	0	67.26350921
8.74	0	67.46603569
8.75	0	67.66488457
8.76	0	67.860072
8.77	0	68.05162976
8.78	0	68.23960239
8.79	0	68.42404382
8.8	0	68.60501381
8.81	0	68.78257421
8.82	0	68.95678531
8.83	0	69.12770245
8.84	0	69.29537307
8.85	0	69.45983423
8.86	0	69.62111081
8.87	0	69.7792144
8.88	0	69.93414293
8.89	0	70.08588101
8.9	0	70.23440094
8.91	0	70.37966442
8.92	0	70.52162466
8.93	0	70.66022896
8.94	0	70.79542155
8.95	0	70.92714652
8.96	0	71.05535073
8.97	0	71.17998226
8.98	0	71.30092555
8.99	0	71.41802294
9	0	71.53114398
9.01	0	71.64019536
9.02	0	71.74516471
9.03	0	71.84616554
9.04	0	71.94337859
9.05	0	72.03701058
9.06	0	72.12727472
9.07	0	72.21437855
9.08	0	72.29851479
9.09	0	72.3798541
9.1	0	72.45853936
9.11	0	72.53468179
9.12	0	72.60835878
9.13	0	72.67961353
9.14	0	72.74845635
9.15	0	72.81486757
9.16	0	72.87880181
9.17	0	72.94019333
9.18	0	72.99896219
9.19	0	73.05502089
9.2	0	73.1082811
9.21	0	73.15866028
9.22	0	73.20608776
9.23	0	73.25051009
9.24	0	73.29189541
9.25	0	73.33023666
9.26	0	73.36555365
9.27	0	73.39789372
9.28	0	73.42733131
9.29	0	73.45396627
9.3	0	73.47792113
9.31	0	73.4993377
9.32	0	73.51837279
9.33	0	73.53519378
9.34	0	73.5499739
9.35	0	73.56288758
9.36	0	73.57410621
9.37	0	73.58379423
9.38	0	73.59210601
9.39	0	73.59918338
9.4	0	73.60515406
9.41	0	73.61013089
9.42	0	73.61421195
9.43	0	73.61748145
9.44	0	73.62001133
9.45	0	73.62186349
9.46	0	73.6230924
9.47	0	73.62374808
9.48	0	73.62387922
9.49	0	73.62353628
9.5	0	73.62277576
9.51	0	73.6216663
9.52	0	73.62028873
9.53	0	73.61872889
9.54	0	73.61706704
9.55	0	73.61536791
9.56	0	73.61367289
9.57	0	73.6119941
9.58	0	73.61031076
9.59	0	73.60856761
9.6	0	73.60667538
9.61	0	73.60451301
9.62	0	73.60193138
9.63	0	73.59875823
9.64	0	73.59480389
9.65	0	73.58986739
9.66	0	73.58374272
9.67	0	73.57622479
9.68	0	73.56711483
9.69	0	73.55622507
9.7	0	73.54338245
9.71	0	73.52843139
9.72	0	73.51123543
9.73	0	73.49167794
9.74	0	73.46966187
9.75	0	73.44510867
9.76	0	73.41795661
9.77	0	73.38815851
9.78	0	73.35567921
9.79	0	73.32049273
9.8	0	73.28257954
9.81	0	73.24192373
9.82	0	73.19851058
9.83	0	73.1523242
9.84	0	73.10334575
9.85	0	73.05155184
9.86	0	72.99691354
9.87	0	72.93939572
9.88	0	72.87895682
9.89	0	72.81554905
9.9	0	72.74911893
9.91	0	72.67960808
9.92	0	72.60695428
9.93	0	72.53109274
9.94	0	72.45195744
9.95	0	72.36948246
9.96	0	72.28360339
9.97	0	72.19425861
9.98	0	72.10139046
9.99	0	72.00494622
10	0	71.90487893
10.01	0	71.80114801
10.02	0	71.6937196
10.03	0	71.58256672
10.04	0	71.46766922
10.05	0	71.34901346
10.06	0	71.22659387
10.07	0	71.10045888
10.08	0	70.97072451
10.09	0	70.83746011
10.1	0	70.70072757
10.11	0	70.5605864
10.12	0	70.41708763
10.13	0	70.27027065
10.14	0	70.12016158
10.15	0	69.96677266
10.16	0	69.81010237
10.17	0	69.65013635
10.18	0	69.48684885
10.19	0	69.32020464
10.2	0	69.15016148
10.21	0	68.97667265
10.22	0	68.7996898
10.23	0	68.61916573
10.24	0	68.43505714
10.25	0	68.24732712
10.26	0	68.05594732
10.27	0	67.86089979
10.28	0	67.66217832
10.29	0	67.45978924
10.3	0	67.2537518
10.31	0	67.04409789
10.32	0	66.83087145
10.33	0	66.61412721
10.34	0	66.39392924
10.35	0	66.17034904
10.36	0	65.94346348
10.37	0	65.71335259
10.38	0	65.48009731
10.39	0	65.24377732
10.4	0	65.00446897
10.41	0	64.76224354
10.42	0	64.51716576
10.43	0	64.26929266
10.44	0	64.01867292
10.45	0	63.76534657
10.46	0	63.50934514
10.47	0	63.25069226
10.48	0	62.98940454
10.49	0	62.72549291
10.5	0	62.45896411
10.51	0	62.18982238
10.52	0	61.91807135
10.53	0	61.6437158
10.54	0	61.36676349
10.55	0	61.08722678
10.56	0	60.80512404
10.57	0	60.52048081
10.58	0	60.23333064
10.59	0	59.94371555
10.6	0	59.65168613
10.61	0	59.35730133
10.62	0	59.06062779
10.63	0	58.76173897
10.64	0	58.46071392
10.65	0	58.1576359
10.66	0	57.85259081
10.67	0	57.54566553
10.68	0	57.23694635
10.69	0	56.92651736
10.7	0	56.61445906
10.71	0	56.30084712
10.72	0	55.98575141
10.73	0	55.66923537
10.74	0	55.35135563
10.75	0	55.03216198
10.76	0	54.7116977
10.77	0	54.39000014
10.78	0	54.06710164
10.79	0	53.74303061
10.8	0	53.41781283
10.81	0	53.09147281
10.82	0	52.7640353
10.83	0	52.43552664
10.84	0	52.10597612
10.85	0	51.77541717
10.86	0	51.44388831
10.87	0	51.11143391
10.88	0	50.77810466
10.89	0	50.44395771
10.9	0	50.10905655
10.91	0	49.7734706
10.92	0	49.43727451
10.93	0	49.10054727
10.94	0	48.76337106
10.95	0	48.42583006
10.96	0	48.08800912
10.97	0	47.7499924
10.98	0	47.41186213
10.99	0	47.07369743
11	0	46.73557326
11.01	0	46.39755963
11.02	0	46.05972104
11.03	0	45.72211611
11.04	0	45.38479759
11.05	0	45.04781258
11.06	0	44.71120336
11.07	0	44.3750468
11.08	0	44.03948863
11.09	0	43.70467338
11.1	0	43.37073223
11.11	0	43.03783993
11.12	0	42.70625783
11.13	0	42.37623741
11.14	0	42.04798587
11.15	0	41.72165708
11.16	0	41.39734709
11.17	0	41.07509276
11.18	0	40.75487319
11.19	0	40.43661398
11.2	0	40.12019391
11.21	0	39.80545384
11.22	0	39.49220733
11.23	0	39.18025239
11.24	0	38.86938383
11.25	0	38.55940557
11.26	0	38.25014242
11.27	0	37.94145055
11.28	0	37.63322647
11.29	0	37.32541387
11.3	0	37.01800809
11.31	0	36.71105809
11.32	0	36.40466587
11.33	0	36.09898323
11.34	0	35.79420634
11.35	0	35.49056812
11.36	0	35.18832905
11.37	0	34.88776666
11.38	0	34.5891644
11.39	0	34.29280031
11.4	0	33.99893605
11.41	0	33.70780685
11.42	0	33.41961282
11.43	0	33.13451199
11.44	0	32.85261548
11.45	0	32.57398489
11.46	0	32.2986321
11.47	0	32.02653172
11.48	0	31.75766885
11.49	0	31.49201205
11.5	0	31.2294935
11.51	0	30.97001337
11.52	0	30.71344702
11.53	0	30.45965312
11.54	0	30.2084826
11.55	0	29.95978769
11.56	0	29.71343085
11.57	0	29.46929293
11.58	0	29.22728046
11.59	0	28.98733139
11.6	0	28.74941938
11.61	0	28.51355619
11.62	0	28.27979222
11.63	0	28.04821512
11.64	0	27.8189467
11.65	0	27.59213809
11.66	0	27.36796362
11.67	0	27.14661357
11.68	0	26.92828629
11.69	0	26.71317992
11.7	0	26.50148421
11.71	0	26.29337281
11.72	0	26.08899639
11.73	0	25.88847685
11.74	0	25.691903
11.75	0	25.49932777
11.76	0	25.31076717
11.77	0	25.12620088
11.78	0	24.94557464
11.79	0	24.7688041
11.8	0	24.59577997
11.81	0	24.42637428
11.82	0	24.26044736
11.83	0	24.09785521
11.84	0	23.93845694
11.85	0	23.78212177
11.86	0	23.62873557
11.87	0	23.47820625
11.88	0	23.33046807
11.89	0	23.18548456
11.9	0	23.04324986
11.91	0	22.90378862
11.92	0	22.76715431
11.93	0	22.63342616
11.94	0	22.50270481
11.95	0	22.37510703
11.96	0	22.25075959
11.97	0	22.12979271
11.98	0	22.01233336
11.99	0	21.89849882
12	0	21.78839057
12.01	0	21.68208911
12.02	0	21.57964966
12.03	0	21.48109912
12.04	0	21.38643431
12.05	0	21.29562162
12.06	0	21.20859801
12.07	0	21.12527332
12.08	0	21.04553377
12.09	0	20.96924639
12.1	0	20.89626431
12.11	0	20.8264324
12.12	0	20.75959325
12.13	0	20.69559295
12.14	0	20.63428663
12.15	0	20.57554326
12.16	0	20.51924976
12.17	0	20.46531393
12.18	0	20.41366637
12.19	0	20.36426117
12.2	0	20.31707532
12.21	0	20.27210703
12.22	0	20.22937293
12.23	0	20.18890437
12.24	0	20.15074303
12.25	0	20.11493596
12.26	0	20.08153043
12.27	0	20.05056872
12.28	0	20.0220832
12.29	0	19.99609179
12.3	0	19.97259422
12.31	0	19.951569
12.32	0	19.93297144
12.33	0	19.91673272
12.34	0	19.90275993
12.35	0	19.89093731
12.36	0	19.88112828
12.37	0	19.87317848
12.38	0	19.86691935
12.39	0	19.86217232
12.4	0	19.85875323
12.41	0	19.85647678
12.42	0	19.85516095
12.43	0	19.85463092
12.44	0	19.85472256
12.45	0	19.85528444
12.46	0	19.85617939
12.47	0	19.8572867
12.48	0	19.858503
12.49	0	19.85974172
12.5	0	19.8609315
12.51	0	19.86201367
12.52	0	19.86293957
12.53	0	19.86366981
12.54	0	19.86417534
12.55	0	19.86443854
12.56	0	19.86445374
12.57	0	19.86422727
12.58	0	19.86377587
12.59	0	19.86312557
12.6	0	19.86231125
12.61	0	19.86137476
12.62	0	19.86036282
12.63	0	19.85932469
12.64	0	19.85830983
12.65	0	19.85736551
12.66	0	19.8565347
12.67	0	19.85585409
12.68	0	19.85535249
12.69	0	19.85504971
12.7	0	19.85495571
12.71	0	19.85507041
12.72	0	19.85538342
12.73	0	19.85587476
12.74	0	19.85651632
12.75	0	19.85727363
12.76	0	19.85810766
12.77	0	19.85897688
12.78	0	19.85983923
12.79	0	19.86065417
12.8	0	19.86138451
12.81	0	19.86199811
12.82	0	19.86246923
12.83	0	19.8627796
12.84	0	19.86291903
12.85	0	19.86288573
12.86	0	19.86268614
12.87	0	19.86233359
12.88	0	19.86184792
12.89	0	19.86125485
12.9	0	19.86058461
12.91	0	19.85987042
12.92	0	19.85914684
12.93	0	19.85844815
12.94	0	19.85780673
12.95	0	19.85725154
12.96	0	19.85680687
12.97	0	19.85649131
12.98	0	19.85631693
12.99	0	19.85628891
13	0	19.85640535
13.01	0	19.85665722
13.02	0	19.857029
13.03	0	19.85749982
13.04	0	19.85804469
13.05	0	19.85863578
13.06	0	19.85924389
13.07	0	19.8598398
13.08	0	19.8603957
13.09	0	19.86088645
13.1	0	19.86129067
13.11	0	19.86159169
13.12	0	19.86177816
13.13	0	19.86184447
13.14	0	19.86179088
13.15	0	19.86162322
13.16	0	19.86135193
13.17	0	19.86099201
13.18	0	19.86056228
13.19	0	19.86008448
13.2	0	19.85958215
13.21	0	19.85907947
13.22	0	19.85860011
13.23	0	19.85816615
13.24	0	19.85779705
13.25	0	19.85750879
13.26	0	19.85731322
13.27	0	19.85721756
13.28	0	19.85722415
13.29	0	19.85733039
13.3	0	19.85752876
13.31	0	19.85780738
13.32	0	19.85815089
13.33	0	19.85854123
13.34	0	19.85895865
13.35	0	19.85938269
13.36	0	19.85979311
13.37	0	19.8601709
13.38	0	19.86049914
13.39	0	19.86076369
13.4	0	19.86095383
13.41	0	19.86106267
13.42	0	19.86108733
13.43	0	19.86102902
13.44	0	19.8608927
13.45	0	19.86068646
13.46	0	19.86042152
13.47	0	19.8601116
13.48	0	19.85977227
13.49	0	19.85942012
13.5	0	19.85907203
